[{"OBJECT_NAME":"STARLINK-2170","OBJECT_ID":"2021-017AH","EPOCH":"2026-03-09T15:22:17.720832","MEAN_MOTION":15.30209302,"ECCENTRICITY":0.0001504,"INCLINATION":53.1613,"RA_OF_ASC_NODE":204.1273,"ARG_OF_PERICENTER":64.4088,"MEAN_ANOMALY":295.7068,"EPHEMERIS_TYPE":0,"CLASSIFICATION_TYPE":"U","NORAD_CAT_ID":47753,"ELEMENT_SET_NO":999,"REV_AT_EPOCH":27788,"BSTAR":0.0004047,"MEAN_MOTION_DOT":0.00011649,"MEAN_MOTION_DDOT":0},{"OBJECT_NAME":"CZ-6A DEB","OBJECT_ID":"2022-151TQ","EPOCH":"2026-03-09T06:57:26.684352","MEAN_MOTION":15.22919125,"ECCENTRICITY":0.00409545,"INCLINATION":98.8216,"RA_OF_ASC_NODE":191.4692,"ARG_OF_PERICENTER":160.8215,"MEAN_ANOMALY":199.457,"EPHEMERIS_TYPE":0,"CLASSIFICATION_TYPE":"U","NORAD_CAT_ID":54975,"ELEMENT_SET_NO":999,"REV_AT_EPOCH":17711,"BSTAR":0.0066825196,"MEAN_MOTION_DOT":0.00163663,"MEAN_MOTION_DDOT":0}]
